{
  "norad_id": 57151,
  "name": "STARLINK-5776",
  "history": [
    {
      "epoch": "2026-03-28T22:00:01.999584",
      "apogee_km": 486.5943500047806,
      "perigee_km": 484.43847646768245,
      "latitude_deg": -7.342102059634618,
      "longitude_deg": -16.897778240032494,
      "semi_major_axis_km": 6863.653413236231,
      "eccentricity": 0.00015705,
      "inclination_deg": 43.0014,
      "raan_deg": 154.6776,
      "arg_perigee_deg": 272.4758,
      "mean_anomaly_deg": 127.0061,
      "mean_motion_rev_day": 15.26756382
    },
    {
      "epoch": "2026-03-29T04:00:01.999584",
      "apogee_km": 486.6346002239379,
      "perigee_km": 484.5466542797285,
      "latitude_deg": 36.86464200093549,
      "longitude_deg": 7.102221759967506,
      "semi_major_axis_km": 6863.727627251833,
      "eccentricity": 0.0001521,
      "inclination_deg": 43.0012,
      "raan_deg": 153.2688,
      "arg_perigee_deg": 263.6507,
      "mean_anomaly_deg": 71.5212,
      "mean_motion_rev_day": 15.2673162
    }
  ]
}